{
  "norad_id": 60432,
  "name": "STARLINK-32246",
  "history": [
    {
      "epoch": "2026-03-28T09:43:48.121248Z",
      "apogee_km": 476.0471928846273,
      "perigee_km": 474.4887285965542,
      "latitude_deg": -3.20980001795788e-05,
      "longitude_deg": 158.48893686762364,
      "height_km": 475.9051840178493,
      "semi_major_axis_km": 6853.4049607405905,
      "eccentricity": 0.0001137,
      "inclination_deg": 53.1595,
      "raan_deg": 130.2658,
      "arg_perigee_deg": 70.4253,
      "mean_anomaly_deg": 289.687,
      "mean_motion_rev_day": 15.30182286
    },
    {
      "epoch": "2026-03-29T02:58:22.835424Z",
      "apogee_km": 475.91695805748805,
      "perigee_km": 474.55861917438415,
      "latitude_deg": 2.2604105651656317e-05,
      "longitude_deg": -104.20080881309904,
      "height_km": 476.07044608413867,
      "semi_major_axis_km": 6853.374788615936,
      "eccentricity": 9.91e-05,
      "inclination_deg": 53.1594,
      "raan_deg": 126.9288,
      "arg_perigee_deg": 84.4461,
      "mean_anomaly_deg": 275.6653,
      "mean_motion_rev_day": 15.30192391
    },
    {
      "epoch": "2026-03-30T02:29:10.651200Z",
      "apogee_km": 476.1017319115199,
      "perigee_km": 474.35001236140124,
      "latitude_deg": -6.311806741330855e-05,
      "longitude_deg": -102.41706070072776,
      "height_km": 475.8168959000234,
      "semi_major_axis_km": 6853.36287213646,
      "eccentricity": 0.0001278,
      "inclination_deg": 53.1598,
      "raan_deg": 122.3775,
      "arg_perigee_deg": 69.4713,
      "mean_anomaly_deg": 290.6424,
      "mean_motion_rev_day": 15.30196382
    },
    {
      "epoch": "2026-03-30T05:37:17.400288Z",
      "apogee_km": 476.11057203594555,
      "perigee_km": 474.3843415589681,
      "latitude_deg": -3.627449446005292e-05,
      "longitude_deg": -150.18152017052896,
      "height_km": 475.82252345860184,
      "semi_major_axis_km": 6853.384456797457,
      "eccentricity": 0.00012594,
      "inclination_deg": 53.1599,
      "raan_deg": 121.7699,
      "arg_perigee_deg": 68.0132,
      "mean_anomaly_deg": 292.1002,
      "mean_motion_rev_day": 15.30189153
    },
    {
      "epoch": "2026-03-30T08:45:23.871168Z",
      "apogee_km": 476.1297822595052,
      "perigee_km": 474.36229477387224,
      "latitude_deg": -3.434778578034791e-05,
      "longitude_deg": 162.0567641690869,
      "height_km": 475.8951124330035,
      "semi_major_axis_km": 6853.383038516688,
      "eccentricity": 0.00012895,
      "inclination_deg": 53.1599,
      "raan_deg": 121.1639,
      "arg_perigee_deg": 73.6322,
      "mean_anomaly_deg": 286.482,
      "mean_motion_rev_day": 15.30189628
    },
    {
      "epoch": "2026-03-31T11:24:18.057600Z",
      "apogee_km": 476.1340307145356,
      "perigee_km": 474.3410508671741,
      "latitude_deg": -2.85474802958307e-05,
      "longitude_deg": 116.08288280289703,
      "height_km": 475.9511126625941,
      "semi_major_axis_km": 6853.374540790855,
      "eccentricity": 0.00013081,
      "inclination_deg": 53.1597,
      "raan_deg": 116.0102,
      "arg_perigee_deg": 78.126,
      "mean_anomaly_deg": 281.9887,
      "mean_motion_rev_day": 15.30192474
    },
    {
      "epoch": "2026-04-01T07:46:59.930400Z",
      "apogee_km": 476.1728355134928,
      "perigee_km": 474.34023808175425,
      "latitude_deg": 2.071955238711121e-05,
      "longitude_deg": 165.6262436848559,
      "height_km": 476.042212621941,
      "semi_major_axis_km": 6853.393536797624,
      "eccentricity": 0.0001337,
      "inclination_deg": 53.1604,
      "raan_deg": 112.0649,
      "arg_perigee_deg": 82.9566,
      "mean_anomaly_deg": 277.1587,
      "mean_motion_rev_day": 15.30186112
    },
    {
      "epoch": "2026-04-02T18:16:09.799392Z",
      "apogee_km": 476.22031204630184,
      "perigee_km": 474.24147060136147,
      "latitude_deg": -9.427231711152318e-06,
      "longitude_deg": 0.2449090265010498,
      "height_km": 476.10479655693996,
      "semi_major_axis_km": 6853.367891323832,
      "eccentricity": 0.00014437,
      "inclination_deg": 53.1614,
      "raan_deg": 105.391,
      "arg_perigee_deg": 88.6054,
      "mean_anomaly_deg": 271.5112,
      "mean_motion_rev_day": 15.30194701
    },
    {
      "epoch": "2026-04-03T06:48:35.436672Z",
      "apogee_km": 476.2276533315353,
      "perigee_km": 474.24702814706234,
      "latitude_deg": -5.9600750185442506e-05,
      "longitude_deg": 169.1953316143056,
      "height_km": 476.2198363729315,
      "semi_major_axis_km": 6853.3743407392985,
      "eccentricity": 0.0001445,
      "inclination_deg": 53.1615,
      "raan_deg": 102.9633,
      "arg_perigee_deg": 94.8942,
      "mean_anomaly_deg": 265.2223,
      "mean_motion_rev_day": 15.30192541
    },
    {
      "epoch": "2026-04-04T07:53:27.049056Z",
      "apogee_km": 476.0698793491456,
      "perigee_km": 474.4291786141084,
      "latitude_deg": 3.8250358336032594e-05,
      "longitude_deg": 147.09741233771547,
      "height_km": 476.0892817539672,
      "semi_major_axis_km": 6853.386528981627,
      "eccentricity": 0.0001197,
      "inclination_deg": 53.1606,
      "raan_deg": 98.1104,
      "arg_perigee_deg": 85.912,
      "mean_anomaly_deg": 274.2018,
      "mean_motion_rev_day": 15.30188459
    },
    {
      "epoch": "2026-04-05T07:24:14.999616Z",
      "apogee_km": 476.0767939294037,
      "perigee_km": 474.44568514839375,
      "latitude_deg": -6.65996203329421e-06,
      "longitude_deg": 148.88172596500678,
      "height_km": 476.16232275467854,
      "semi_major_axis_km": 6853.398239538898,
      "eccentricity": 0.000119,
      "inclination_deg": 53.1604,
      "raan_deg": 93.5602,
      "arg_perigee_deg": 90.201,
      "mean_anomaly_deg": 269.9127,
      "mean_motion_rev_day": 15.30184537
    },
    {
      "epoch": "2026-04-06T03:46:56.461152Z",
      "apogee_km": 476.0205149112571,
      "perigee_km": 474.4600009096321,
      "latitude_deg": 6.194263458497602e-05,
      "longitude_deg": -161.57328322249435,
      "height_km": 476.2339364554416,
      "semi_major_axis_km": 6853.377257910444,
      "eccentricity": 0.00011385,
      "inclination_deg": 53.1604,
      "raan_deg": 89.6148,
      "arg_perigee_deg": 97.0218,
      "mean_anomaly_deg": 263.0913,
      "mean_motion_rev_day": 15.30191564
    },
    {
      "epoch": "2026-04-07T07:59:54.011328Z",
      "apogee_km": 476.070113949444,
      "perigee_km": 474.41173355945284,
      "latitude_deg": 5.1076153690684884e-05,
      "longitude_deg": 128.56752383840902,
      "height_km": 476.1428366080321,
      "semi_major_axis_km": 6853.377923754448,
      "eccentricity": 0.00012099,
      "inclination_deg": 53.1604,
      "raan_deg": 84.1542,
      "arg_perigee_deg": 90.2573,
      "mean_anomaly_deg": 269.8567,
      "mean_motion_rev_day": 15.30191341
    },
    {
      "epoch": "2026-04-08T15:20:57.807744Z",
      "apogee_km": 476.10659167932226,
      "perigee_km": 474.35596728601104,
      "latitude_deg": -6.4869306152973444e-06,
      "longitude_deg": 10.947716562301745,
      "height_km": 476.1285127023708,
      "semi_major_axis_km": 6853.368279482666,
      "eccentricity": 0.00012772,
      "inclination_deg": 53.1605,
      "raan_deg": 78.0878,
      "arg_perigee_deg": 89.9421,
      "mean_anomaly_deg": 270.1726,
      "mean_motion_rev_day": 15.30194571
    },
    {
      "epoch": "2026-04-09T14:51:48.595680Z",
      "apogee_km": 477.0325775541769,
      "perigee_km": 473.5592577515099,
      "latitude_deg": -4.7134632868875706e-05,
      "longitude_deg": 12.716776874825634,
      "height_km": 476.0174510252181,
      "semi_major_axis_km": 6853.432917652843,
      "eccentricity": 0.0002534,
      "inclination_deg": 53.1621,
      "raan_deg": 73.5342,
      "arg_perigee_deg": 84.2184,
      "mean_anomaly_deg": 275.9105,
      "mean_motion_rev_day": 15.30172923
    },
    {
      "epoch": "2026-04-10T04:58:14.647872Z",
      "apogee_km": 476.07661470724906,
      "perigee_km": 474.31914551059526,
      "latitude_deg": 3.582486474530988e-05,
      "longitude_deg": 157.8013226530434,
      "height_km": 476.1308243953548,
      "semi_major_axis_km": 6853.334880108922,
      "eccentricity": 0.00012822,
      "inclination_deg": 53.1607,
      "raan_deg": 70.8066,
      "arg_perigee_deg": 92.2705,
      "mean_anomaly_deg": 267.8443,
      "mean_motion_rev_day": 15.30205757
    },
    {
      "epoch": "2026-04-11T07:37:09.724224Z",
      "apogee_km": 476.0316122120321,
      "perigee_km": 474.50467354619923,
      "latitude_deg": 9.921890978018686e-06,
      "longitude_deg": 111.81829572828211,
      "height_km": 475.6655867729076,
      "semi_major_axis_km": 6853.405142879115,
      "eccentricity": 0.0001114,
      "inclination_deg": 53.1607,
      "raan_deg": 65.6475,
      "arg_perigee_deg": 48.9599,
      "mean_anomaly_deg": 311.1498,
      "mean_motion_rev_day": 15.30182225
    },
    {
      "epoch": "2026-04-13T06:38:46.491072Z",
      "apogee_km": 476.22108682662656,
      "perigee_km": 474.3358492996713,
      "latitude_deg": 5.050422085877674e-05,
      "longitude_deg": 115.38260403208479,
      "height_km": 476.02983540644794,
      "semi_major_axis_km": 6853.415468063148,
      "eccentricity": 0.00013754,
      "inclination_deg": 53.1608,
      "raan_deg": 56.5463,
      "arg_perigee_deg": 81.0492,
      "mean_anomaly_deg": 279.0665,
      "mean_motion_rev_day": 15.30178767
    },
    {
      "epoch": "2026-04-14T13:59:49.063200Z",
      "apogee_km": 476.1443375819654,
      "perigee_km": 474.24048267183207,
      "latitude_deg": -9.096533078428075e-06,
      "longitude_deg": -2.2312843591173217,
      "height_km": 475.86021567911723,
      "semi_major_axis_km": 6853.329410126898,
      "eccentricity": 0.0001389,
      "inclination_deg": 53.1606,
      "raan_deg": 50.4807,
      "arg_perigee_deg": 76.0035,
      "mean_anomaly_deg": 284.112,
      "mean_motion_rev_day": 15.30207589
    },
    {
      "epoch": "2026-04-15T19:46:49.850976Z",
      "apogee_km": 476.49984466911246,
      "perigee_km": 473.93668979916765,
      "latitude_deg": 1.4669909833503447e-05,
      "longitude_deg": -95.97601379638108,
      "height_km": 476.1665777352398,
      "semi_major_axis_km": 6853.35526723414,
      "eccentricity": 0.000187,
      "inclination_deg": 53.1577,
      "raan_deg": 44.7124,
      "arg_perigee_deg": 92.2955,
      "mean_anomaly_deg": 267.826,
      "mean_motion_rev_day": 15.30198929
    },
    {
      "epoch": "2026-04-16T13:01:24.974688Z",
      "apogee_km": 476.4044403386615,
      "perigee_km": 473.9920663294888,
      "latitude_deg": -3.277794332428912e-05,
      "longitude_deg": 1.33405489139637,
      "height_km": 476.1139191249054,
      "semi_major_axis_km": 6853.335253334075,
      "eccentricity": 0.000176,
      "inclination_deg": 53.1616,
      "raan_deg": 41.377,
      "arg_perigee_deg": 90.8598,
      "mean_anomaly_deg": 269.2604,
      "mean_motion_rev_day": 15.30205632
    },
    {
      "epoch": "2026-04-17T12:32:14.260128Z",
      "apogee_km": 476.29460430413565,
      "perigee_km": 474.27421567247166,
      "latitude_deg": 3.243305138777048e-05,
      "longitude_deg": 3.113275991552637,
      "height_km": 476.0718046244955,
      "semi_major_axis_km": 6853.421409988304,
      "eccentricity": 0.0001474,
      "inclination_deg": 53.1618,
      "raan_deg": 36.8272,
      "arg_perigee_deg": 83.7149,
      "mean_anomaly_deg": 276.402,
      "mean_motion_rev_day": 15.30176777
    }
  ]
}